{
  "updated": "2026-07-21T05:44:59.417Z",
  "capsules": {
    "66664": {
      "name": "SOYUZ-MS 28",
      "kind": "crew",
      "family": "soyuz",
      "phase": "docked",
      "stationKey": "iss",
      "since": "2026-07-03T10:34:14.509Z",
      "distanceKm": 0,
      "altitudeKm": 427.1,
      "inclinationDeg": 51.631,
      "l1": "1 66664U 25275A   26201.79846070  .00005574  00000+0  10900-3 0  9994",
      "l2": "2 66664  51.6312 133.7599 0006835 319.3995  40.6483 15.49066413576110"
    },
    "67796": {
      "name": "CREW DRAGON 12",
      "kind": "crew",
      "family": "dragon",
      "phase": "docked",
      "stationKey": "iss",
      "since": "2026-07-03T10:34:14.509Z",
      "distanceKm": 0,
      "altitudeKm": 427.1,
      "inclinationDeg": 51.631,
      "l1": "1 67796U 26031A   26201.79846070  .00005574  00000+0  10900-3 0  9992",
      "l2": "2 67796  51.6312 133.7599 0006835 319.3995  40.6483 15.49066413576353"
    },
    "68319": {
      "name": "PROGRESS-MS 33",
      "kind": "cargo",
      "family": "progress",
      "phase": "docked",
      "stationKey": "iss",
      "since": "2026-07-10T20:18:26.588Z",
      "distanceKm": 0,
      "altitudeKm": 427.1,
      "inclinationDeg": 51.631,
      "l1": "1 68319U 26058A   26201.79846070  .00005574  00000+0  10900-3 0  9993",
      "l2": "2 68319  51.6312 133.7599 0006835 319.3995  40.6483 15.49066413576153"
    },
    "68689": {
      "name": "CYGNUS NG-24",
      "kind": "cargo",
      "family": "cygnus",
      "phase": "docked",
      "stationKey": "iss",
      "since": "2026-07-10T20:18:26.588Z",
      "distanceKm": 0,
      "altitudeKm": 427.1,
      "inclinationDeg": 51.631,
      "l1": "1 68689U 26079A   26201.79846070  .00005574  00000+0  10900-3 0  9996",
      "l2": "2 68689  51.6312 133.7599 0006835 319.3995  40.6483 15.49066413576478"
    },
    "68837": {
      "name": "PROGRESS-MS 34",
      "kind": "cargo",
      "family": "progress",
      "phase": "docked",
      "stationKey": "iss",
      "since": "2026-07-10T20:18:26.588Z",
      "distanceKm": 0,
      "altitudeKm": 427.1,
      "inclinationDeg": 51.631,
      "l1": "1 68837U 26093A   26201.79846070  .00005574  00000+0  10900-3 0  9997",
      "l2": "2 68837  51.6312 133.7599 0006835 319.3995  40.6483 15.49066413576518"
    },
    "69049": {
      "name": "TIANZHOU-10",
      "kind": "cargo",
      "family": "tianzhou",
      "phase": "docked",
      "stationKey": "css",
      "since": "2026-07-10T20:18:26.588Z",
      "distanceKm": 0,
      "altitudeKm": 402.2,
      "inclinationDeg": 41.468,
      "l1": "1 69049U 26102A   26201.79118142  .00010456  00000+0  13855-3 0  9993",
      "l2": "2 69049  41.4681 117.9120 0001779 306.1068  53.9605 15.58223807298056"
    },
    "69180": {
      "name": "SHENZHOU-23 (SZ-23)",
      "kind": "crew",
      "family": "shenzhou",
      "phase": "docked",
      "stationKey": "css",
      "since": "2026-07-03T10:34:14.509Z",
      "distanceKm": 0,
      "altitudeKm": 402.2,
      "inclinationDeg": 41.468,
      "l1": "1 69180U 26113A   26201.79118142  .00010456  00000+0  13855-3 0  9991",
      "l2": "2 69180  41.4681 117.9120 0001779 306.1068  53.9605 15.58223807297961"
    }
  },
  "events": [
    {
      "id": "68319",
      "name": "PROGRESS-MS 33",
      "kind": "cargo",
      "family": "progress",
      "stationKey": "iss",
      "event": "launched",
      "at": "2026-07-10T20:18:26.588Z"
    },
    {
      "id": "68689",
      "name": "CYGNUS NG-24",
      "kind": "cargo",
      "family": "cygnus",
      "stationKey": "iss",
      "event": "launched",
      "at": "2026-07-10T20:18:26.588Z"
    },
    {
      "id": "68837",
      "name": "PROGRESS-MS 34",
      "kind": "cargo",
      "family": "progress",
      "stationKey": "iss",
      "event": "launched",
      "at": "2026-07-10T20:18:26.588Z"
    },
    {
      "id": "69049",
      "name": "TIANZHOU-10",
      "kind": "cargo",
      "family": "tianzhou",
      "stationKey": "css",
      "event": "launched",
      "at": "2026-07-10T20:18:26.588Z"
    }
  ]
}
